[{"OBJECT_NAME":"STARLINK-5412","OBJECT_ID":"2022-175BA","EPOCH":"2026-03-09T06:45:05.867424","MEAN_MOTION":15.08842697,"ECCENTRICITY":0.00014265,"INCLINATION":53.2171,"RA_OF_ASC_NODE":30.546,"ARG_OF_PERICENTER":83.9398,"MEAN_ANOMALY":276.1757,"EPHEMERIS_TYPE":0,"CLASSIFICATION_TYPE":"U","NORAD_CAT_ID":54806,"ELEMENT_SET_NO":999,"REV_AT_EPOCH":18007,"BSTAR":4.8222683e-5,"MEAN_MOTION_DOT":4.8e-6,"MEAN_MOTION_DDOT":0},{"OBJECT_NAME":"NOAA 17 DEB","OBJECT_ID":"2002-032BW","EPOCH":"2026-03-08T22:40:23.580768","MEAN_MOTION":15.05196658,"ECCENTRICITY":0.00149213,"INCLINATION":98.7181,"RA_OF_ASC_NODE":121.0481,"ARG_OF_PERICENTER":217.4424,"MEAN_ANOMALY":142.5761,"EPHEMERIS_TYPE":0,"CLASSIFICATION_TYPE":"U","NORAD_CAT_ID":48737,"ELEMENT_SET_NO":999,"REV_AT_EPOCH":26108,"BSTAR":0.0055556624,"MEAN_MOTION_DOT":0.00080221,"MEAN_MOTION_DDOT":0}]
